$$SOE
2460154.500000000, A.D. 2023-Jul-29 00:00:00.0000, -2.653474277400557E+08, 2.948622443436033E+07, -6.423423406845514E+07,
2460161.500000000, A.D. 2023-Aug-05 00:00:00.0000, -2.673280315353154E+08, 1.651768276730625E+07, -6.052616909772273E+07,
2460168.500000000, A.D. 2023-Aug-12 00:00:00.0000, -2.686820268135957E+08, 3.510409375453524E+06, -5.667621763812792E+07,
2460175.500000000, A.D. 2023-Aug-19 00:00:00.0000, -2.694064179945406E+08, -9.505106632765504E+06, -5.269344094726738E+07,
2460182.500000000, A.D. 2023-Aug-26 00:00:00.0000, -2.694999138778843E+08, -2.249838228295506E+07, -4.858725106128984E+07,
2460189.500000000, A.D. 2023-Sep-02 00:00:00.0000, -2.689629280603797E+08, -3.543904496541884E+07, -4.436737778009184E+07,
2460196.500000000, A.D. 2023-Sep-09 00:00:00.0000, -2.677975712324432E+08, -4.829693573387745E+07, -4.004383431529225E+07,
2460203.500000000, A.D. 2023-Sep-16 00:00:00.0000, -2.660076353084666E+08, -6.104221102255297E+07, -3.562688186936660E+07,
2460210.500000000, A.D. 2023-Sep-23 00:00:00.0000, -2.635985691736813E+08, -7.364544181322680E+07, -3.112699341678828E+07,
2460217.500000000, A.D. 2023-Sep-30 00:00:00.0000, -2.605774466576010E+08, -8.607770841474578E+07, -2.655481681966326E+07,
2460224.500000000, A.D. 2023-Oct-07 00:00:00.0000, -2.569529294256194E+08, -9.831069079560998E+07, -2.192113737026446E+07,
2460231.500000000, A.D. 2023-Oct-14 00:00:00.0000, -2.527352241566299E+08, -1.103167572334649E+08, -1.723684039161947E+07,
2460238.500000000, A.D. 2023-Oct-21 00:00:00.0000, -2.479360312496563E+08, -1.220690491814387E+08, -1.251287432044578E+07,
2460245.500000000, A.D. 2023-Oct-28 00:00:00.0000, -2.425684869980773E+08, -1.335415596456802E+08, -7.760214202303968E+06,
2460252.500000000, A.D. 2023-Nov-04 00:00:00.0000, -2.366471010243791E+08, -1.447092054631490E+08, -2.989825777702965E+06,
2460259.500000000, A.D. 2023-Nov-11 00:00:00.0000, -2.301876893723693E+08, -1.555478937764230E+08, 1.787369557715401E+06,
2460266.500000000, A.D. 2023-Nov-18 00:00:00.0000, -2.232073036455736E+08, -1.660345825407170E+08, 6.560528692194007E+06,
2460273.500000000, A.D. 2023-Nov-25 00:00:00.0000, -2.157241567427917E+08, -1.761473348746511E+08, 1.131891945203154E+07,
2460280.500000000, A.D. 2023-Dec-02 00:00:00.0000, -2.077575457840326E+08, -1.858653671639972E+08, 1.605195181023538E+07,
2460287.500000000, A.D. 2023-Dec-09 00:00:00.0000, -1.993277727621309E+08, -1.951690909412528E+08, 2.074920750121208E+07,
2460294.500000000, A.D. 2023-Dec-16 00:00:00.0000, -1.904560632333905E+08, -2.040401485551812E+08, 2.540046790064379E+07,
2460301.500000000, A.D. 2023-Dec-23 00:00:00.0000, -1.811644832811622E+08, -2.124614420268435E+08, 2.999574010078955E+07,
2460308.500000000, A.D. 2023-Dec-30 00:00:00.0000, -1.714758566486567E+08, -2.204171541782779E+08, 3.452528131706044E+07,
2460315.500000000, A.D. 2024-Jan-06 00:00:00.0000, -1.614136843375664E+08, -2.278927645794348E+08, 3.897962154329821E+07,
2460322.500000000, A.D. 2024-Jan-13 00:00:00.0000, -1.510020639931657E+08, -2.348750623545005E+08, 4.334958398713857E+07,
2460329.500000000, A.D. 2024-Jan-20 00:00:00.0000, -1.402656083138877E+08, -2.413521530351741E+08, 4.762630341883150E+07,
2460336.500000000, A.D. 2024-Jan-27 00:00:00.0000, -1.292293649376274E+08, -2.473134591036619E+08, 5.180124268698075E+07,
2460343.500000000, A.D. 2024-Feb-03 00:00:00.0000, -1.179187386153291E+08, -2.527497154806319E+08, 5.586620739164827E+07,
2460350.500000000, A.D. 2024-Feb-10 00:00:00.0000, -1.063594157275328E+08, -2.576529605601924E+08, 5.981335869969988E+07,
2460357.500000000, A.D. 2024-Feb-17 00:00:00.0000, -9.457729127974330E+07, -2.620165231075502E+08, 6.363522432569668E+07,
2460364.500000000, A.D. 2024-Feb-24 00:00:00.0000, -8.259839856144220E+07, -2.658350053569048E+08, 6.732470772203763E+07,
2460371.500000000, A.D. 2024-Mar-02 00:00:00.0000, -7.044884162365942E+07, -2.691042627222121E+08, 7.087509554160547E+07,
2460378.500000000, A.D. 2024-Mar-09 00:00:00.0000, -5.815473059651117E+07, -2.718213805696549E+08, 7.428006344645891E+07,
2460385.500000000, A.D. 2024-Mar-16 00:00:00.0000, -4.574211958498400E+07, -2.739846482237997E+08, 7.753368034441957E+07,
2460392.500000000, A.D. 2024-Mar-23 00:00:00.0000, -3.323694734402856E+07, -2.755935294435074E+08, 8.063041125454473E+07,
2460399.500000000, A.D. 2024-Mar-30 00:00:00.0000, -2.066498303085176E+07, -2.766486297187615E+08, 8.356511910057196E+07,
2460406.500000000, A.D. 2024-Apr-06 00:00:00.0000, -8.051776796068789E+06, -2.771516640667281E+08, 8.633306522677933E+07,
2460413.500000000, A.D. 2024-Apr-13 00:00:00.0000, 4.577388350897554E+06, -2.771054247933519E+08, 8.892990847503686E+07,
2460420.500000000, A.D. 2024-Apr-20 00:00:00.0000, 1.719754248666883E+07, -2.765137468330182E+08, 9.135170322785190E+07,
2460427.500000000, A.D. 2024-Apr-27 00:00:00.0000, 2.978407106979304E+07, -2.753814714968539E+08, 9.359489660813650E+07,
2460434.500000000, A.D. 2024-May-04 00:00:00.0000, 4.231275375265175E+07, -2.737144095822183E+08, 9.565632486534831E+07,
2460441.500000000, A.D. 2024-May-11 00:00:00.0000, 5.475980004079732E+07, -2.715193041743112E+08, 9.753320900989702E+07,
2460448.500000000, A.D. 2024-May-18 00:00:00.0000, 6.710188198879597E+07, -2.688037933264334E+08, 9.922314977736035E+07,
2460455.500000000, A.D. 2024-May-25 00:00:00.0000, 7.931616407817417E+07, -2.655763728137116E+08, 1.007241220023488E+08,
2460462.500000000, A.D. 2024-Jun-01 00:00:00.0000, 9.138033046993308E+07, -2.618463591872698E+08, 1.020344684725517E+08,
2460469.500000000, A.D. 2024-Jun-08 00:00:00.0000, 1.032726100170535E+08, -2.576238533044385E+08, 1.031528933179023E+08,
2460476.500000000, A.D. 2024-Jun-15 00:00:00.0000, 1.149717995781646E+08, -2.529197039247139E+08, 1.040784550179741E+08,
2460483.500000000, A.D. 2024-Jun-22 00:00:00.0000, 1.264572847704214E+08, -2.477454703123514E+08, 1.048105592842463E+08,
2460490.500000000, A.D. 2024-Jun-29 00:00:00.0000, 1.377090561844751E+08, -2.421133857626120E+08, 1.053489519232157E+08,
2460497.500000000, A.D. 2024-Jul-06 00:00:00.0000, 1.487077238538099E+08, -2.360363246009609E+08, 1.056937112896698E+08,
2460504.500000000, A.D. 2024-Jul-13 00:00:00.0000, 1.594345320764964E+08, -2.295277698974646E+08, 1.058452404341016E+08,
2460511.500000000, A.D. 2024-Jul-20 00:00:00.0000, 1.698713727489006E+08, -2.226017808025771E+08, 1.058042592685209E+08,
2460518.500000000, A.D. 2024-Jul-27 00:00:00.0000, 1.800007966958631E+08, -2.152729605045353E+08, 1.055717967736696E+08,
2460525.500000000, A.D. 2024-Aug-03 00:00:00.0000, 1.898060234071883E+08, -2.075564252103896E+08, 1.051491832265970E+08,
2460532.500000000, A.D. 2024-Aug-10 00:00:00.0000, 1.992709494796413E+08, -1.994677741698771E+08, 1.045380424623556E+08,
2460539.500000000, A.D. 2024-Aug-17 00:00:00.0000, 2.083801559411002E+08, -1.910230607239901E+08, 1.037402841923723E+08,
2460546.500000000, A.D. 2024-Aug-24 00:00:00.0000, 2.171189146087168E+08, -1.822387643937208E+08, 1.027580963963427E+08,
2460553.500000000, A.D. 2024-Aug-31 00:00:00.0000, 2.254731937152132E+08, -1.731317640530555E+08, 1.015939377896151E+08,
2460560.500000000, A.D. 2024-Sep-07 00:00:00.0000, 2.334296632838800E+08, -1.637193120331334E+08, 1.002505303600174E+08,
2460567.500000000, A.D. 2024-Sep-14 00:00:00.0000, 2.409757004492040E+08, -1.540190081325100E+08, 9.873085206802477E+07,
2460574.500000000, A.D. 2024-Sep-21 00:00:00.0000, 2.480993927967337E+08, -1.440487730933693E+08, 9.703812994844088E+07,
2460581.500000000, A.D. 2024-Sep-28 00:00:00.0000, 2.547895393240933E+08, -1.338268247376285E+08, 9.517583340246448E+07,
2460588.500000000, A.D. 2024-Oct-05 00:00:00.0000, 2.610356527750254E+08, -1.233716567158602E+08, 9.314766734417970E+07,
2460595.500000000, A.D. 2024-Oct-12 00:00:00.0000, 2.668279630661665E+08, -1.127020168386214E+08, 9.095756547875160E+07,
2460602.500000000, A.D. 2024-Oct-19 00:00:00.0000, 2.721574201311524E+08, -1.018368852092402E+08, 8.860968385068175E+07,
2460609.500000000, A.D. 2024-Oct-26 00:00:00.0000, 2.770156962185634E+08, -9.079545290427494E+07, 8.610839459670433E+07,
2460616.500000000, A.D. 2024-Nov-02 00:00:00.0000, 2.813951879641714E+08, -7.959710129142557E+07, 8.345827986259893E+07,
2460623.500000000, A.D. 2024-Nov-09 00:00:00.0000, 2.852890183919398E+08, -6.826138190379435E+07, 8.066412587027133E+07,
2460630.500000000, A.D. 2024-Nov-16 00:00:00.0000, 2.886910389215784E+08, -5.680799680993444E+07, 7.773091712412910E+07,
2460637.500000000, A.D. 2024-Nov-23 00:00:00.0000, 2.915958314731356E+08, -4.525677947067437E+07, 7.466383073533902E+07,
2460644.500000000, A.D. 2024-Nov-30 00:00:00.0000, 2.939987109072062E+08, -3.362767606571791E+07, 7.146823082026947E+07,
2460651.500000000, A.D. 2024-Dec-07 00:00:00.0000, 2.958957282348641E+08, -2.194072679894404E+07, 6.814966294013548E+07,
2460658.500000000, A.D. 2024-Dec-14 00:00:00.0000, 2.972836739230475E+08, -1.021604587088618E+07, 6.471384872194550E+07,
2460665.500000000, A.D. 2024-Dec-21 00:00:00.0000, 2.981600790063455E+08, 1.526198725210458E+06, 6.116668076367367E+07,
2460672.500000000, A.D. 2024-Dec-28 00:00:00.0000, 2.985232160032109E+08, 1.326580268546772E+07, 5.751421739128813E+07,
2460679.500000000, A.D. 2025-Jan-04 00:00:00.0000, 2.983721022443174E+08, 2.498254259875150E+07, 5.376267720713188E+07,
2460686.500000000, A.D. 2025-Jan-11 00:00:00.0000, 2.977065037958277E+08, 3.665619459829671E+07, 4.991843371230158E+07,
2460693.500000000, A.D. 2025-Jan-18 00:00:00.0000, 2.965269390570934E+08, 4.826655360947992E+07, 4.598800998778041E+07,
2460700.500000000, A.D. 2025-Jan-25 00:00:00.0000, 2.948346822634704E+08, 5.979345278809995E+07, 4.197807334569190E+07,
2460707.500000000, A.D. 2025-Feb-01 00:00:00.0000, 2.926317670635419E+08, 7.121678319003636E+07, 3.789542990226305E+07,
2460714.500000000, A.D. 2025-Feb-08 00:00:00.0000, 2.899209902028836E+08, 8.251651376354286E+07, 3.374701904002893E+07,
2460721.500000000, A.D. 2025-Feb-15 00:00:00.0000, 2.867059153113294E+08, 9.367271171536896E+07, 2.953990772617348E+07,
$$EOE